start=new Date('2023-04-23T00:00:00.000Z').valueOf();
sats=[{"ECCENTRICITY":"0.00012740","INCLINATION":"53.2158","DECAY_DATE":null,"NORAD_CAT_ID":"52990","CLASSIFICATION_TYPE":"U","ARG_OF_PERICENTER":"76.1105","BSTAR":"0.00002401100000","SITE":"AFETR","MEAN_ANOMALY":"284.0029","MEAN_ELEMENT_THEORY":"SGP4","APOAPSIS":"540.621","TIME_SYSTEM":"UTC","PERIAPSIS":"538.858","RA_OF_ASC_NODE":"146.2996","EPOCH":"2023-04-22T18:50:31.596288","OBJECT_ID":"2022-076E","MEAN_MOTION_DDOT":"0.0000000000000","RCS_SIZE":"LARGE","OBJECT_NAME":"STARLINK-4286","SEMIMAJOR_AXIS":"6917.874","TLE_LINE1":"1 52990U 22076E   23112.78508792  .00000094  00000-0  24011-4 0  9992","ELEMENT_SET_NO":"999","OBJECT_TYPE":"PAYLOAD","LAUNCH_DATE":"2022-07-07","CENTER_NAME":"EARTH","MEAN_MOTION":"15.08842015","FILE":"3892285","COUNTRY_CODE":"US","PERIOD":"95.437","MEAN_MOTION_DOT":"0.00000094","REV_AT_EPOCH":"4390","EPHEMERIS_TYPE":"0","REF_FRAME":"TEME","TLE_LINE2":"2 52990  53.2158 146.2996 0001274  76.1105 284.0029 15.08842015 43907","GP_ID":"230596471"},{"OBJECT_ID":"2022-076F","MEAN_MOTION_DDOT":"0.0000000000000","RCS_SIZE":"LARGE","PERIAPSIS":"538.609","RA_OF_ASC_NODE":"146.3169","EPOCH":"2023-04-22T18:45:13.918176","APOAPSIS":"540.879","TIME_SYSTEM":"UTC","BSTAR":"0.00006904500000","SITE":"AFETR","MEAN_ANOMALY":"276.1668","MEAN_ELEMENT_THEORY":"SGP4","ARG_OF_PERICENTER":"83.9511","CLASSIFICATION_TYPE":"U","ECCENTRICITY":"0.00016410","DECAY_DATE":null,"NORAD_CAT_ID":"52991","INCLINATION":"53.2138","REF_FRAME":"TEME","TLE_LINE2":"2 52991  53.2138 146.3169 0001641  83.9511 276.1668 15.08840477 43905","GP_ID":"230595220","REV_AT_EPOCH":"4390","EPHEMERIS_TYPE":"0","FILE":"3892285","COUNTRY_CODE":"US","PERIOD":"95.438","MEAN_MOTION_DOT":"0.00000811","MEAN_MOTION":"15.08840477","CENTER_NAME":"EARTH","LAUNCH_DATE":"2022-07-07","OBJECT_TYPE":"PAYLOAD","ELEMENT_SET_NO":"999","OBJECT_NAME":"STARLINK-4285","SEMIMAJOR_AXIS":"6917.879","TLE_LINE1":"1 52991U 22076F   23112.78141109  .00000811  00000-0  69045-4 0  9991"},{"MEAN_MOTION_DDOT":"0.0000000000000","RCS_SIZE":"LARGE","OBJECT_ID":"2022-076G","PERIAPSIS":"538.821","EPOCH":"2023-04-22T12:19:45.776064","RA_OF_ASC_NODE":"147.5279","APOAPSIS":"540.612","TIME_SYSTEM":"UTC","MEAN_ANOMALY":"266.8560","MEAN_ELEMENT_THEORY":"SGP4","SITE":"AFETR","BSTAR":"0.00026414000000","ARG_OF_PERICENTER":"93.2580","CLASSIFICATION_TYPE":"U","INCLINATION":"53.2140","DECAY_DATE":null,"NORAD_CAT_ID":"52992","ECCENTRICITY":"0.00012950","GP_ID":"230563556","TLE_LINE2":"2 52992  53.2140 147.5279 0001295  93.2580 266.8560 15.08849435 43864","REF_FRAME":"TEME","EPHEMERIS_TYPE":"0","REV_AT_EPOCH":"4386","COUNTRY_CODE":"US","PERIOD":"95.437","MEAN_MOTION_DOT":"0.00003919","FILE":"3892071","MEAN_MOTION":"15.08849435","LAUNCH_DATE":"2022-07-07","CENTER_NAME":"EARTH","OBJECT_TYPE":"PAYLOAD","ELEMENT_SET_NO":"999","TLE_LINE1":"1 52992U 22076G   23112.51372426  .00003919  00000-0  26414-3 0  9995","SEMIMAJOR_AXIS":"6917.852","OBJECT_NAME":"STARLINK-4269"},{"REV_AT_EPOCH":"4400","EPHEMERIS_TYPE":"0","REF_FRAME":"TEME","TLE_LINE2":"2 52993  53.2151 137.3715 0001440  89.6264 270.4893 15.08852218 44009","GP_ID":"230596221","MEAN_MOTION":"15.08852218","FILE":"3892285","PERIOD":"95.437","MEAN_MOTION_DOT":"0.00001800","COUNTRY_CODE":"US","OBJECT_TYPE":"PAYLOAD","LAUNCH_DATE":"2022-07-07","CENTER_NAME":"EARTH","OBJECT_NAME":"STARLINK-4264","SEMIMAJOR_AXIS":"6917.843","TLE_LINE1":"1 52993U 22076H   23112.54679801  .00001800  00000-0  13109-3 0  9990","ELEMENT_SET_NO":"999","EPOCH":"2023-04-22T13:07:23.348064","RA_OF_ASC_NODE":"137.3715","PERIAPSIS":"538.712","OBJECT_ID":"2022-076H","RCS_SIZE":"LARGE","MEAN_MOTION_DDOT":"0.0000000000000","APOAPSIS":"540.704","TIME_SYSTEM":"UTC","ARG_OF_PERICENTER":"89.6264","SITE":"AFETR","BSTAR":"0.00013109000000","MEAN_ELEMENT_THEORY":"SGP4","MEAN_ANOMALY":"270.4893","ECCENTRICITY":"0.00014400","DECAY_DATE":null,"NORAD_CAT_ID":"52993","INCLINATION":"53.2151","CLASSIFICATION_TYPE":"U"},{"APOAPSIS":"540.684","TIME_SYSTEM":"UTC","RCS_SIZE":"LARGE","MEAN_MOTION_DDOT":"0.0000000000000","OBJECT_ID":"2022-076J","RA_OF_ASC_NODE":"137.3881","EPOCH":"2023-04-22T13:02:05.993952","PERIAPSIS":"538.744","CLASSIFICATION_TYPE":"U","DECAY_DATE":null,"INCLINATION":"53.2140","NORAD_CAT_ID":"52994","ECCENTRICITY":"0.00014020","MEAN_ELEMENT_THEORY":"SGP4","MEAN_ANOMALY":"271.5654","SITE":"AFETR","BSTAR":"0.00021692000000","ARG_OF_PERICENTER":"88.5499","MEAN_MOTION_DOT":"0.00003167","PERIOD":"95.437","COUNTRY_CODE":"US","FILE":"3892285","MEAN_MOTION":"15.08850380","GP_ID":"230595972","TLE_LINE2":"2 52994  53.2140 137.3881 0001402  88.5499 271.5654 15.08850380 44003","REF_FRAME":"TEME","REV_AT_EPOCH":"4400","EPHEMERIS_TYPE":"0","ELEMENT_SET_NO":"999","TLE_LINE1":"1 52994U 22076J   23112.54312493  .00003167  00000-0  21692-3 0  9996","SEMIMAJOR_AXIS":"6917.849","OBJECT_NAME":"STARLINK-4256","CENTER_NAME":"EARTH","LAUNCH_DATE":"2022-07-07","OBJECT_TYPE":"PAYLOAD"},{"INCLINATION":"53.2134","DECAY_DATE":null,"NORAD_CAT_ID":"52995","ECCENTRICITY":"0.00015700","CLASSIFICATION_TYPE":"U","ARG_OF_PERICENTER":"81.9529","MEAN_ELEMENT_THEORY":"SGP4","MEAN_ANOMALY":"278.1641","BSTAR":"-0.00003701200000","SITE":"AFETR","TIME_SYSTEM":"UTC","APOAPSIS":"540.834","RA_OF_ASC_NODE":"136.2345","EPOCH":"2023-04-22T19:13:02.970048","PERIAPSIS":"538.662","RCS_SIZE":"LARGE","MEAN_MOTION_DDOT":"0.0000000000000","OBJECT_ID":"2022-076K","SEMIMAJOR_AXIS":"6917.883","TLE_LINE1":"1 52995U 22076K   23112.80072882 -.00000877  00000-0 -37012-4 0  9992","OBJECT_NAME":"STARLINK-4296","ELEMENT_SET_NO":"999","OBJECT_TYPE":"PAYLOAD","LAUNCH_DATE":"2022-07-07","CENTER_NAME":"EARTH","MEAN_MOTION":"15.08839155","PERIOD":"95.438","MEAN_MOTION_DOT":"-0.00000877","COUNTRY_CODE":"US","FILE":"3892285","REV_AT_EPOCH":"4404","EPHEMERIS_TYPE":"0","GP_ID":"230594721","TLE_LINE2":"2 52995  53.2134 136.2345 0001570  81.9529 278.1641 15.08839155 44047","REF_FRAME":"TEME"},{"MEAN_MOTION":"15.08830716","PERIOD":"95.438","MEAN_MOTION_DOT":"0.00003782","COUNTRY_CODE":"US","FILE":"3892071","REV_AT_EPOCH":"4393","EPHEMERIS_TYPE":"0","TLE_LINE2":"2 52996  53.2147 139.4867 0001309  88.0921 272.0221 15.08830716 43938","GP_ID":"230563057","REF_FRAME":"TEME","TLE_LINE1":"1 52996U 22076L   23112.07577114  .00003782  00000-0  25563-3 0  9993","SEMIMAJOR_AXIS":"6917.909","OBJECT_NAME":"STARLINK-4295","ELEMENT_SET_NO":"999","OBJECT_TYPE":"PAYLOAD","LAUNCH_DATE":"2022-07-07","CENTER_NAME":"EARTH","APOAPSIS":"540.679","TIME_SYSTEM":"UTC","EPOCH":"2023-04-22T01:49:06.626496","RA_OF_ASC_NODE":"139.4867","PERIAPSIS":"538.868","RCS_SIZE":"LARGE","MEAN_MOTION_DDOT":"0.0000000000000","OBJECT_ID":"2022-076L","DECAY_DATE":null,"INCLINATION":"53.2147","NORAD_CAT_ID":"52996","ECCENTRICITY":"0.00013090","CLASSIFICATION_TYPE":"U","ARG_OF_PERICENTER":"88.0921","MEAN_ELEMENT_THEORY":"SGP4","MEAN_ANOMALY":"272.0221","SITE":"AFETR","BSTAR":"0.00025563000000"},{"SEMIMAJOR_AXIS":"6890.624","TLE_LINE1":"1 52997U 22076M   23112.79250454  .00018631  00000-0  92320-3 0  9992","OBJECT_NAME":"STARLINK-4301","ELEMENT_SET_NO":"999","OBJECT_TYPE":"PAYLOAD","LAUNCH_DATE":"2022-07-07","CENTER_NAME":"EARTH","MEAN_MOTION":"15.17801240","COUNTRY_CODE":"US","MEAN_MOTION_DOT":"0.00018631","PERIOD":"94.874","FILE":"3892285","REV_AT_EPOCH":"4409","EPHEMERIS_TYPE":"0","GP_ID":"230595722","TLE_LINE2":"2 52997  53.2145 132.8130 0006159  37.0217 323.1203 15.17801240 44093","REF_FRAME":"TEME","INCLINATION":"53.2145","DECAY_DATE":null,"NORAD_CAT_ID":"52997","ECCENTRICITY":"0.00061590","CLASSIFICATION_TYPE":"U","ARG_OF_PERICENTER":"37.0217","MEAN_ANOMALY":"323.1203","MEAN_ELEMENT_THEORY":"SGP4","BSTAR":"0.00092320000000","SITE":"AFETR","APOAPSIS":"516.733","TIME_SYSTEM":"UTC","PERIAPSIS":"508.245","EPOCH":"2023-04-22T19:01:12.392256","RA_OF_ASC_NODE":"132.8130","MEAN_MOTION_DDOT":"0.0000000000000","RCS_SIZE":"LARGE","OBJECT_ID":"2022-076M"},{"ELEMENT_SET_NO":"999","SEMIMAJOR_AXIS":"6917.888","TLE_LINE1":"1 52998U 22076N   23112.78968618 -.00000002  00000-0  17936-4 0  9995","OBJECT_NAME":"STARLINK-4254","LAUNCH_DATE":"2022-07-07","CENTER_NAME":"EARTH","OBJECT_TYPE":"PAYLOAD","PERIOD":"95.438","MEAN_MOTION_DOT":"-0.00000002","COUNTRY_CODE":"US","FILE":"3892285","MEAN_MOTION":"15.08837374","GP_ID":"230596472","TLE_LINE2":"2 52998  53.2173 136.1886 0001031  86.4915 273.6195 15.08837374 44048","REF_FRAME":"TEME","REV_AT_EPOCH":"4404","EPHEMERIS_TYPE":"0","CLASSIFICATION_TYPE":"U","NORAD_CAT_ID":"52998","DECAY_DATE":null,"INCLINATION":"53.2173","ECCENTRICITY":"0.00010310","MEAN_ELEMENT_THEORY":"SGP4","MEAN_ANOMALY":"273.6195","SITE":"AFETR","BSTAR":"0.00001793600000","ARG_OF_PERICENTER":"86.4915","TIME_SYSTEM":"UTC","APOAPSIS":"540.467","RCS_SIZE":"LARGE","MEAN_MOTION_DDOT":"0.0000000000000","OBJECT_ID":"2022-076N","EPOCH":"2023-04-22T18:57:08.885952","RA_OF_ASC_NODE":"136.1886","PERIAPSIS":"539.040"},{"COUNTRY_CODE":"US","MEAN_MOTION_DOT":"-0.00000509","PERIOD":"95.438","FILE":"3892285","MEAN_MOTION":"15.08831353","TLE_LINE2":"2 52999  53.2156 136.3142 0000996  86.2979 273.8127 15.08831353 44042","GP_ID":"230595221","REF_FRAME":"TEME","REV_AT_EPOCH":"4404","EPHEMERIS_TYPE":"0","ELEMENT_SET_NO":"999","TLE_LINE1":"1 52999U 22076P   23112.78233543 -.00000509  00000-0 -13878-4 0  9992","SEMIMAJOR_AXIS":"6917.907","OBJECT_NAME":"STARLINK-4217","CENTER_NAME":"EARTH","LAUNCH_DATE":"2022-07-07","OBJECT_TYPE":"PAYLOAD","TIME_SYSTEM":"UTC","APOAPSIS":"540.461","MEAN_MOTION_DDOT":"0.0000000000000","RCS_SIZE":"LARGE","OBJECT_ID":"2022-076P","PERIAPSIS":"539.083","EPOCH":"2023-04-22T18:46:33.781152","RA_OF_ASC_NODE":"136.3142","CLASSIFICATION_TYPE":"U","INCLINATION":"53.2156","DECAY_DATE":null,"NORAD_CAT_ID":"52999","ECCENTRICITY":"0.00009960","MEAN_ANOMALY":"273.8127","MEAN_ELEMENT_THEORY":"SGP4","SITE":"AFETR","BSTAR":"-0.00001387800000","ARG_OF_PERICENTER":"86.2979"}];
